{"spkid": "50392326", "covariance": {"epoch": "2456021.5", "data": [["2.516497055360899E-14", "-5.991198489767761E-14", "8.486642234979219E-12", "1.063785274223778E-12", "5.225902006792977E-12", "-1.676860572866568E-13"], ["-5.991198489767761E-14", "1.426398146265351E-13", "-2.021011214251637E-11", "-2.304368412142973E-12", "-1.267134885288963E-11", "4.037189926641809E-13"], ["8.486642234979219E-12", "-2.021011214251637E-11", "3.046599745988882E-9", "1.984782624548314E-9", "2.60405120646011E-10", "-2.118042896825019E-11"], ["1.063785274223778E-12", "-2.304368412142973E-12", "1.984782624548314E-9", "1.352537656840408E-6", "-1.351038952468524E-6", "2.182505306022448E-8"], ["5.225902006792977E-12", "-1.267134885288963E-11", "2.60405120646011E-10", "-1.351038952468524E-6", "1.351206332327369E-6", "-2.184104925136054E-8"], ["-1.676860572866568E-13", "4.037189926641809E-13", "-2.118042896825019E-11", "2.182505306022448E-8", "-2.184104925136054E-8", "3.659843114140158E-10"]], "elements": [{"units": null, "title": "eccentricity", "value": ".6979006651531838", "sigma": 1.58634707909741e-07, "name": "e", "label": "e"}, {"name": "q", "sigma": 3.77676865357855e-07, "title": "perihelion distance", "value": ".6843786048228276", "units": "au", "label": "q"}, {"name": "tp", "sigma": 5.51960120478725e-05, "units": "TDB", "value": "2455593.417683758244", "title": "time of perihelion passage", "label": "tp"}, {"label": "node", "name": "om", "sigma": 0.00116298652478883, "title": "longitude of the ascending node", "value": "343.6304905068166", "units": "deg"}, {"label": "peri", "value": "325.7570589085597", "title": "argument of perihelion", "units": "deg", "name": "w", "sigma": 0.00116241401072396}, {"label": "i", "title": "inclination", "value": "1.400661379383688", "units": "deg", "name": "i", "sigma": 1.91307164375518e-05}], "labels": ["e", "q", "tp", "node", "peri", "i"]}, "elements": [{"name": "e", "sigma": "1.63E-7", "units": null, "value": ".6986249305992417", "title": "eccentricity", "label": "e"}, {"label": "a", "title": "semi-major axis", "value": "2.270727329278781", "units": "au", "sigma": "7.2316E-8", "name": "a"}, {"sigma": "3.9182E-7", "name": "q", "title": "perihelion distance", "value": ".6843406064515911", "units": "au", "label": "q"}, {"sigma": "1.9354E-5", "name": "i", "title": "inclination; angle with respect to x-y ecliptic plane", "value": "1.405579451323636", "units": "deg", "label": "i"}, {"sigma": ".0011454", "name": "om", "units": "deg", "value": "342.9172790475188", "title": "longitude of the ascending node", "label": "node"}, {"name": "w", "sigma": ".0011447", "units": "deg", "title": "argument of perihelion", "value": "326.5331728341603", "label": "peri"}, {"label": "M", "units": "deg", "title": "mean anomaly", "value": "177.3771881395054", "name": "ma", "sigma": "4.6533E-5"}, {"title": "time of perihelion passage", "value": "2460584.697890227822", "units": "TDB", "name": "tp", "sigma": ".00013237", "label": "tp"}, {"value": "1249.815502451353", "title": "sidereal orbital period", "units": "d", "name": "per", "sigma": "5.9705E-5", "label": "period"}, {"sigma": "1.376E-8", "name": "n", "value": ".2880425145102667", "title": "mean motion", "units": "deg/d", "label": "n"}, {"label": "Q", "name": "ad", "sigma": "1.2284E-7", "title": "aphelion distance", "value": "3.85711405210597", "units": "au"}], "epoch": "2461200.5"}